[
    {
        "Altitude(m)": 617719.7954208135,
        "Argument of Periapsis(deg)": 0.0,
        "Eccentricity": 0.0,
        "Inclination(deg)": 60.0,
        "Latitude(deg)": -41.10270637159391,
        "Longitude(deg)": -74.90535429172455,
        "Mean Anomaly(deg)": -130.90909999999997,
        "RAAN(deg)": 175.0,
        "Satellite Name": "Test1 784",
        "Satellite Number": 784,
        "Semi-Major Axis(m)": 6980739.136638005,
        "Time(s)": 0
    },
    {
        "Altitude(m)": 617911.3313814978,
        "Argument of Periapsis(deg)": 0.00010418945913296404,
        "Eccentricity": 0.0,
        "Inclination(deg)": 60.0,
        "Latitude(deg)": -41.565898351597816,
        "Longitude(deg)": -74.40094725111389,
        "Mean Anomaly(deg)": -130.28899385453815,
        "RAAN(deg)": 174.99957995086024,
        "Satellite Name": "Test1 784",
        "Satellite Number": 784,
        "Semi-Major Axis(m)": 6980739.136638005,
        "Time(s)": 10
    },
    {
        "Altitude(m)": 618101.7421071078,
        "Argument of Periapsis(deg)": 0.0002083789182659281,
        "Eccentricity": 0.0,
        "Inclination(deg)": 60.0,
        "Latitude(deg)": -42.02641182219957,
        "Longitude(deg)": -73.88873280212981,
        "Mean Anomaly(deg)": -129.66888770907627,
        "RAAN(deg)": 174.9991599017205,
        "Satellite Name": "Test1 784",
        "Satellite Number": 784,
        "Semi-Major Axis(m)": 6980739.136638005,
        "Time(s)": 20
    },
    {
        "Altitude(m)": 618290.9545703197,
        "Argument of Periapsis(deg)": 0.00031256837739889213,
        "Eccentricity": 0.0,
        "Inclination(deg)": 60.0,
        "Latitude(deg)": -42.48416653639389,
        "Longitude(deg)": -73.36851625871199,
        "Mean Anomaly(deg)": -129.0487815636145,
        "RAAN(deg)": 174.99873985258077,
        "Satellite Name": "Test1 784",
        "Satellite Number": 784,
        "Semi-Major Axis(m)": 6980739.136638005,
        "Time(s)": 30
    },
    {
        "Altitude(m)": 618478.8961210392,
        "Argument of Periapsis(deg)": 0.0004167578365318562,
        "Eccentricity": 0.0,
        "Inclination(deg)": 60.0,
        "Latitude(deg)": -42.939079722109426,
        "Longitude(deg)": -72.84009914111678,
        "Mean Anomaly(deg)": -128.42867541815264,
        "RAAN(deg)": 174.99831980344103,
        "Satellite Name": "Test1 784",
        "Satellite Number": 784,
        "Semi-Major Axis(m)": 6980739.136638005,
        "Time(s)": 40
    },
    {
        "Altitude(m)": 618665.494518033,
        "Argument of Periapsis(deg)": 0.0005209472956648203,
        "Eccentricity": 0.0,
        "Inclination(deg)": 60.0,
        "Latitude(deg)": -43.39106600409525,
        "Longitude(deg)": -72.30328027383764,
        "Mean Anomaly(deg)": -127.80856927269083,
        "RAAN(deg)": 174.99789975430127,
        "Satellite Name": "Test1 784",
        "Satellite Number": 784,
        "Semi-Major Axis(m)": 6980739.136638005,
        "Time(s)": 50
    },
    {
        "Altitude(m)": 618850.6779603969,
        "Argument of Periapsis(deg)": 0.0006251367547977843,
        "Eccentricity": 0.0,
        "Inclination(deg)": 60.0,
        "Latitude(deg)": -43.84003732516714,
        "Longitude(deg)": -71.75785539039927,
        "Mean Anomaly(deg)": -127.18846312722901,
        "RAAN(deg)": 174.99747970516154,
        "Satellite Name": "Test1 784",
        "Satellite Number": 784,
        "Semi-Major Axis(m)": 6980739.136638005,
        "Time(s)": 60
    },
    {
        "Altitude(m)": 619034.3751187834,
        "Argument of Periapsis(deg)": 0.0007293262139307483,
        "Eccentricity": 0.0,
        "Inclination(deg)": 60.0,
        "Latitude(deg)": -44.285902867044136,
        "Longitude(deg)": -71.2036167597709,
        "Mean Anomaly(deg)": -126.56835698176717,
        "RAAN(deg)": 174.9970596560218,
        "Satellite Name": "Test1 784",
        "Satellite Number": 784,
        "Semi-Major Axis(m)": 6980739.136638005,
        "Time(s)": 70
    },
    {
        "Altitude(m)": 619216.5151664071,
        "Argument of Periapsis(deg)": 0.0008335156730637124,
        "Eccentricity": 0.0,
        "Inclination(deg)": 60.0,
        "Latitude(deg)": -44.72856897104336,
        "Longitude(deg)": -70.64035434925859,
        "Mean Anomaly(deg)": -125.94825083630533,
        "RAAN(deg)": 174.99663960688207,
        "Satellite Name": "Test1 784",
        "Satellite Number": 784,
        "Semi-Major Axis(m)": 6980739.136638005,
        "Time(s)": 80
    },
    {
        "Altitude(m)": 619397.0278098194,
        "Argument of Periapsis(deg)": 0.0009377051321966765,
        "Eccentricity": 0.0,
        "Inclination(deg)": 60.0,
        "Latitude(deg)": -45.167939058934,
        "Longitude(deg)": -70.06785550023218,
        "Mean Anomaly(deg)": -125.32814469084353,
        "RAAN(deg)": 174.9962195577423,
        "Satellite Name": "Test1 784",
        "Satellite Number": 784,
        "Semi-Major Axis(m)": 6980739.136638005,
        "Time(s)": 90
    },
    {
        "Altitude(m)": 619575.8433193984,
        "Argument of Periapsis(deg)": 0.0010418945913296407,
        "Eccentricity": 0.0,
        "Inclination(deg)": 60.0,
        "Latitude(deg)": -45.603913554292944,
        "Longitude(deg)": -69.48590463178589,
        "Mean Anomaly(deg)": -124.70803854538164,
        "RAAN(deg)": 174.9957995086026,
        "Satellite Name": "Test1 784",
        "Satellite Number": 784,
        "Semi-Major Axis(m)": 6980739.136638005,
        "Time(s)": 100
    },
    {
        "Altitude(m)": 619752.8925595944,
        "Argument of Periapsis(deg)": 0.0011460840504626045,
        "Eccentricity": 0.0,
        "Inclination(deg)": 60.0,
        "Latitude(deg)": -46.03638980474807,
        "Longitude(deg)": -68.89428448755426,
        "Mean Anomaly(deg)": -124.08793239991981,
        "RAAN(deg)": 174.99537945946284,
        "Satellite Name": "Test1 784",
        "Satellite Number": 784,
        "Semi-Major Axis(m)": 6980739.136638005,
        "Time(s)": 110
    },
    {
        "Altitude(m)": 619928.1070188887,
        "Argument of Periapsis(deg)": 0.0012502735095955685,
        "Eccentricity": 0.0,
        "Inclination(deg)": 60.0,
        "Latitude(deg)": -46.465262005539316,
        "Longitude(deg)": -68.29277590238505,
        "Mean Anomaly(deg)": -123.46782625445802,
        "RAAN(deg)": 174.9949594103231,
        "Satellite Name": "Test1 784",
        "Satellite Number": 784,
        "Semi-Major Axis(m)": 6980739.136638005,
        "Time(s)": 120
    },
    {
        "Altitude(m)": 620101.4188394414,
        "Argument of Periapsis(deg)": 0.0013544629687285324,
        "Eccentricity": 0.0,
        "Inclination(deg)": 60.0,
        "Latitude(deg)": -46.89042112488013,
        "Longitude(deg)": -67.68115760431077,
        "Mean Anomaly(deg)": -122.84772010899617,
        "RAAN(deg)": 174.99453936118334,
        "Satellite Name": "Test1 784",
        "Satellite Number": 784,
        "Semi-Major Axis(m)": 6980739.136638005,
        "Time(s)": 130
    },
    {
        "Altitude(m)": 620272.7608464491,
        "Argument of Periapsis(deg)": 0.0014586524278614966,
        "Eccentricity": 0.0,
        "Inclination(deg)": 60.0,
        "Latitude(deg)": -47.311754831653424,
        "Longitude(deg)": -67.05920756735864,
        "Mean Anomaly(deg)": -122.22761396353438,
        "RAAN(deg)": 174.99411931204364,
        "Satellite Name": "Test1 784",
        "Satellite Number": 784,
        "Semi-Major Axis(m)": 6980739.136638005,
        "Time(s)": 140
    },
    {
        "Altitude(m)": 620442.0665771769,
        "Argument of Periapsis(deg)": 0.0015628418869944607,
        "Eccentricity": 0.0,
        "Inclination(deg)": 60.0,
        "Latitude(deg)": -47.729147426035695,
        "Longitude(deg)": -66.42670289219396,
        "Mean Anomaly(deg)": -121.60750781807255,
        "RAAN(deg)": 174.99369926290387,
        "Satellite Name": "Test1 784",
        "Satellite Number": 784,
        "Semi-Major Axis(m)": 6980739.136638005,
        "Time(s)": 150
    },
    {
        "Altitude(m)": 620609.2703096719,
        "Argument of Periapsis(deg)": 0.0016670313461274247,
        "Eccentricity": 0.0,
        "Inclination(deg)": 60.0,
        "Latitude(deg)": -48.14247977369901,
        "Longitude(deg)": -65.78341973029964,
        "Mean Anomaly(deg)": -120.98740167261072,
        "RAAN(deg)": 174.99327921376414,
        "Satellite Name": "Test1 784",
        "Satellite Number": 784,
        "Semi-Major Axis(m)": 6980739.136638005,
        "Time(s)": 160
    },
    {
        "Altitude(m)": 620774.3070910949,
        "Argument of Periapsis(deg)": 0.0017712208052603888,
        "Eccentricity": 0.0,
        "Inclination(deg)": 60.0,
        "Latitude(deg)": -48.551629244311876,
        "Longitude(deg)": -65.1291347674383,
        "Mean Anomaly(deg)": -120.36729552714885,
        "RAAN(deg)": 174.99285916462438,
        "Satellite Name": "Test1 784",
        "Satellite Number": 784,
        "Semi-Major Axis(m)": 6980739.136638005,
        "Time(s)": 170
    },
    {
        "Altitude(m)": 620937.1127657552,
        "Argument of Periapsis(deg)": 0.001875410264393353,
        "Eccentricity": 0.0,
        "Inclination(deg)": 60.0,
        "Latitude(deg)": -48.95646965511905,
        "Longitude(deg)": -64.4636252435523,
        "Mean Anomaly(deg)": -119.74718938168702,
        "RAAN(deg)": 174.99243911548467,
        "Satellite Name": "Test1 784",
        "Satellite Number": 784,
        "Semi-Major Axis(m)": 6980739.136638005,
        "Time(s)": 180
    },
    {
        "Altitude(m)": 621097.6240027258,
        "Argument of Periapsis(deg)": 0.0019795997235263173,
        "Eccentricity": 0.0,
        "Inclination(deg)": 60.0,
        "Latitude(deg)": -49.35687122045664,
        "Longitude(deg)": -63.786669024880176,
        "Mean Anomaly(deg)": -119.12708323622518,
        "RAAN(deg)": 174.99201906634488,
        "Satellite Name": "Test1 784",
        "Satellite Number": 784,
        "Semi-Major Axis(m)": 6980739.136638005,
        "Time(s)": 190
    }
]